STARLINK-36624          
1 67636U 26020V   26042.58335648 -.00013482  00000+0 -61703-4 0  9994
2 67636  42.9989 300.6853 0001656 282.2778 215.7429 15.81978146  3193
STARLINK-36610          
1 67637U 26020W   26042.58335648  .00016398  00000+0  10359-3 0  9992
2 67637  42.9989 300.6959 0001585 275.2052 218.2223 15.76344779  3192
STARLINK-36599          
1 67638U 26020X   26042.58335648 -.00017312  00000+0 -79964-4 0  9990
2 67638  42.9987 300.6515 0001671 246.9298 264.1255 15.81983696  3190
STARLINK-36595          
1 67639U 26020Y   26042.58335648 -.00025486  00000+0 -11904-3 0  9991
2 67639  42.9987 300.6406 0001754 264.7765 250.7740 15.81981322  3193
STARLINK-36570          
1 67640U 26020Z   26042.58335648 -.01882841  00000+0 -10427-1 0  9997
2 67640  42.9989 300.6318 0001404 263.2202 255.5950 15.81606329  3198
STARLINK-36514          
1 67641U 26020AA  26042.58335648 -.00013519  00000+0 -61857-4 0  9991
2 67641  42.9987 300.6071 0001934 292.2284 236.3886 15.81983768  3193
STARLINK-36556          
1 67642U 26020AB  26042.58335648  .00086059  00000+0  40936-3 0  9993
2 67642  42.9987 300.5977 0001477 260.5303 271.7781 15.81901423  3195
STARLINK-36533          
1 67643U 26020AC  26042.58335648 -.01792973  00000+0 -11612-1 0  9993
2 67643  42.9989 300.6361 0001565 269.0740 247.9127 15.78072039  3190
STARLINK-36623          
1 67644U 26020AD  26042.58335648 -.01879937  00000+0 -10229-1 0  9993
2 67644  42.9987 300.5726 0001563 262.5167 279.4613 15.81972250  3190
STARLINK-36619          
1 67645U 26020AE  26042.58335648 -.00084491  00000+0 -40252-3 0  9997
2 67645  42.9987 300.5840 0002057 229.4601 308.0347 15.82020092  3194
ALSAT-3B                
1 67646U 26021A   26042.57440496  .00007502  00000+0  31628-3 0  9999
2 67646  97.4721 117.0234 0011765 222.1901 137.8432 15.23549141  1741
CZ-2C R/B               
1 67647U 26021B   26042.57703422  .00015250  00000+0  46110-3 0  9992
2 67647  97.6561 117.5197 0153887 101.9473 259.9062 15.23369597  1727
