CCSDS_OMM_VERS = 2.0
CREATION_DATE  = 
ORIGINATOR     = 

OBJECT_NAME    = STARLINK-36624
OBJECT_ID      = 2026-020V
CENTER_NAME    = EARTH
REF_FRAME      = TEME
TIME_SYSTEM    = UTC
MEAN_ELEMENT_THEORY = SGP/SGP4

EPOCH          = 2026-02-11T14:00:01.999872
MEAN_MOTION    = 15.81978146
ECCENTRICITY   = .0001656
INCLINATION    = 42.9989
RA_OF_ASC_NODE = 300.6853
ARG_OF_PERICENTER = 282.2778
MEAN_ANOMALY   = 215.7429

EPHEMERIS_TYPE = 0
CLASSIFICATION_TYPE = U
NORAD_CAT_ID   = 67636
ELEMENT_SET_NO = 999
REV_AT_EPOCH   = 319
BSTAR          = -.6170337E-4
MEAN_MOTION_DOT = -.13482E-3
MEAN_MOTION_DDOT = 0

CCSDS_OMM_VERS = 2.0
CREATION_DATE  = 
ORIGINATOR     = 

OBJECT_NAME    = STARLINK-36610
OBJECT_ID      = 2026-020W
CENTER_NAME    = EARTH
REF_FRAME      = TEME
TIME_SYSTEM    = UTC
MEAN_ELEMENT_THEORY = SGP/SGP4

EPOCH          = 2026-02-11T14:00:01.999872
MEAN_MOTION    = 15.76344779
ECCENTRICITY   = .00015854
INCLINATION    = 42.9989
RA_OF_ASC_NODE = 300.6959
ARG_OF_PERICENTER = 275.2052
MEAN_ANOMALY   = 218.2223

EPHEMERIS_TYPE = 0
CLASSIFICATION_TYPE = U
NORAD_CAT_ID   = 67637
ELEMENT_SET_NO = 999
REV_AT_EPOCH   = 319
BSTAR          = .1035918E-3
MEAN_MOTION_DOT = .16398E-3
MEAN_MOTION_DDOT = 0

CCSDS_OMM_VERS = 2.0
CREATION_DATE  = 
ORIGINATOR     = 

OBJECT_NAME    = STARLINK-36599
OBJECT_ID      = 2026-020X
CENTER_NAME    = EARTH
REF_FRAME      = TEME
TIME_SYSTEM    = UTC
MEAN_ELEMENT_THEORY = SGP/SGP4

EPOCH          = 2026-02-11T14:00:01.999872
MEAN_MOTION    = 15.81983696
ECCENTRICITY   = .00016718
INCLINATION    = 42.9987
RA_OF_ASC_NODE = 300.6515
ARG_OF_PERICENTER = 246.9298
MEAN_ANOMALY   = 264.1255

EPHEMERIS_TYPE = 0
CLASSIFICATION_TYPE = U
NORAD_CAT_ID   = 67638
ELEMENT_SET_NO = 999
REV_AT_EPOCH   = 319
BSTAR          = -.79964267E-4
MEAN_MOTION_DOT = -.17312E-3
MEAN_MOTION_DDOT = 0

CCSDS_OMM_VERS = 2.0
CREATION_DATE  = 
ORIGINATOR     = 

OBJECT_NAME    = STARLINK-36595
OBJECT_ID      = 2026-020Y
CENTER_NAME    = EARTH
REF_FRAME      = TEME
TIME_SYSTEM    = UTC
MEAN_ELEMENT_THEORY = SGP/SGP4

EPOCH          = 2026-02-11T14:00:01.999872
MEAN_MOTION    = 15.81981322
ECCENTRICITY   = .00017543
INCLINATION    = 42.9987
RA_OF_ASC_NODE = 300.6406
ARG_OF_PERICENTER = 264.7765
MEAN_ANOMALY   = 250.7740

EPHEMERIS_TYPE = 0
CLASSIFICATION_TYPE = U
NORAD_CAT_ID   = 67639
ELEMENT_SET_NO = 999
REV_AT_EPOCH   = 319
BSTAR          = -.1190446E-3
MEAN_MOTION_DOT = -.25486E-3
MEAN_MOTION_DDOT = 0

CCSDS_OMM_VERS = 2.0
CREATION_DATE  = 
ORIGINATOR     = 

OBJECT_NAME    = STARLINK-36570
OBJECT_ID      = 2026-020Z
CENTER_NAME    = EARTH
REF_FRAME      = TEME
TIME_SYSTEM    = UTC
MEAN_ELEMENT_THEORY = SGP/SGP4

EPOCH          = 2026-02-11T14:00:01.999872
MEAN_MOTION    = 15.81606329
ECCENTRICITY   = .00014041
INCLINATION    = 42.9989
RA_OF_ASC_NODE = 300.6318
ARG_OF_PERICENTER = 263.2202
MEAN_ANOMALY   = 255.5950

EPHEMERIS_TYPE = 0
CLASSIFICATION_TYPE = U
NORAD_CAT_ID   = 67640
ELEMENT_SET_NO = 999
REV_AT_EPOCH   = 319
BSTAR          = -.10426622E-1
MEAN_MOTION_DOT = -.1882841E-1
MEAN_MOTION_DDOT = 0

CCSDS_OMM_VERS = 2.0
CREATION_DATE  = 
ORIGINATOR     = 

OBJECT_NAME    = STARLINK-36514
OBJECT_ID      = 2026-020AA
CENTER_NAME    = EARTH
REF_FRAME      = TEME
TIME_SYSTEM    = UTC
MEAN_ELEMENT_THEORY = SGP/SGP4

EPOCH          = 2026-02-11T14:00:01.999872
MEAN_MOTION    = 15.81983768
ECCENTRICITY   = .00019344
INCLINATION    = 42.9987
RA_OF_ASC_NODE = 300.6071
ARG_OF_PERICENTER = 292.2284
MEAN_ANOMALY   = 236.3886

EPHEMERIS_TYPE = 0
CLASSIFICATION_TYPE = U
NORAD_CAT_ID   = 67641
ELEMENT_SET_NO = 999
REV_AT_EPOCH   = 319
BSTAR          = -.61856672E-4
MEAN_MOTION_DOT = -.13519E-3
MEAN_MOTION_DDOT = 0

CCSDS_OMM_VERS = 2.0
CREATION_DATE  = 
ORIGINATOR     = 

OBJECT_NAME    = STARLINK-36556
OBJECT_ID      = 2026-020AB
CENTER_NAME    = EARTH
REF_FRAME      = TEME
TIME_SYSTEM    = UTC
MEAN_ELEMENT_THEORY = SGP/SGP4

EPOCH          = 2026-02-11T14:00:01.999872
MEAN_MOTION    = 15.81901423
ECCENTRICITY   = .0001477
INCLINATION    = 42.9987
RA_OF_ASC_NODE = 300.5977
ARG_OF_PERICENTER = 260.5303
MEAN_ANOMALY   = 271.7781

EPHEMERIS_TYPE = 0
CLASSIFICATION_TYPE = U
NORAD_CAT_ID   = 67642
ELEMENT_SET_NO = 999
REV_AT_EPOCH   = 319
BSTAR          = .4093579E-3
MEAN_MOTION_DOT = .86059E-3
MEAN_MOTION_DDOT = 0

CCSDS_OMM_VERS = 2.0
CREATION_DATE  = 
ORIGINATOR     = 

OBJECT_NAME    = STARLINK-36533
OBJECT_ID      = 2026-020AC
CENTER_NAME    = EARTH
REF_FRAME      = TEME
TIME_SYSTEM    = UTC
MEAN_ELEMENT_THEORY = SGP/SGP4

EPOCH          = 2026-02-11T14:00:01.999872
MEAN_MOTION    = 15.78072039
ECCENTRICITY   = .00015652
INCLINATION    = 42.9989
RA_OF_ASC_NODE = 300.6361
ARG_OF_PERICENTER = 269.0740
MEAN_ANOMALY   = 247.9127

EPHEMERIS_TYPE = 0
CLASSIFICATION_TYPE = U
NORAD_CAT_ID   = 67643
ELEMENT_SET_NO = 999
REV_AT_EPOCH   = 319
BSTAR          = -.11612477E-1
MEAN_MOTION_DOT = -.1792973E-1
MEAN_MOTION_DDOT = 0

CCSDS_OMM_VERS = 2.0
CREATION_DATE  = 
ORIGINATOR     = 

OBJECT_NAME    = STARLINK-36623
OBJECT_ID      = 2026-020AD
CENTER_NAME    = EARTH
REF_FRAME      = TEME
TIME_SYSTEM    = UTC
MEAN_ELEMENT_THEORY = SGP/SGP4

EPOCH          = 2026-02-11T14:00:01.999872
MEAN_MOTION    = 15.81972250
ECCENTRICITY   = .00015631
INCLINATION    = 42.9987
RA_OF_ASC_NODE = 300.5726
ARG_OF_PERICENTER = 262.5167
MEAN_ANOMALY   = 279.4613

EPHEMERIS_TYPE = 0
CLASSIFICATION_TYPE = U
NORAD_CAT_ID   = 67644
ELEMENT_SET_NO = 999
REV_AT_EPOCH   = 319
BSTAR          = -.10228704E-1
MEAN_MOTION_DOT = -.1879937E-1
MEAN_MOTION_DDOT = 0

CCSDS_OMM_VERS = 2.0
CREATION_DATE  = 
ORIGINATOR     = 

OBJECT_NAME    = STARLINK-36619
OBJECT_ID      = 2026-020AE
CENTER_NAME    = EARTH
REF_FRAME      = TEME
TIME_SYSTEM    = UTC
MEAN_ELEMENT_THEORY = SGP/SGP4

EPOCH          = 2026-02-11T14:00:01.999872
MEAN_MOTION    = 15.82020092
ECCENTRICITY   = .00020575
INCLINATION    = 42.9987
RA_OF_ASC_NODE = 300.5840
ARG_OF_PERICENTER = 229.4601
MEAN_ANOMALY   = 308.0347

EPHEMERIS_TYPE = 0
CLASSIFICATION_TYPE = U
NORAD_CAT_ID   = 67645
ELEMENT_SET_NO = 999
REV_AT_EPOCH   = 319
BSTAR          = -.40251508E-3
MEAN_MOTION_DOT = -.84491E-3
MEAN_MOTION_DDOT = 0

CCSDS_OMM_VERS = 2.0
CREATION_DATE  = 
ORIGINATOR     = 

OBJECT_NAME    = ALSAT-3B
OBJECT_ID      = 2026-021A
CENTER_NAME    = EARTH
REF_FRAME      = TEME
TIME_SYSTEM    = UTC
MEAN_ELEMENT_THEORY = SGP/SGP4

EPOCH          = 2026-02-11T13:47:08.588544
MEAN_MOTION    = 15.23549141
ECCENTRICITY   = .00117658
INCLINATION    = 97.4721
RA_OF_ASC_NODE = 117.0234
ARG_OF_PERICENTER = 222.1901
MEAN_ANOMALY   = 137.8432

EPHEMERIS_TYPE = 0
CLASSIFICATION_TYPE = U
NORAD_CAT_ID   = 67646
ELEMENT_SET_NO = 999
REV_AT_EPOCH   = 174
BSTAR          = .31627913E-3
MEAN_MOTION_DOT = .7502E-4
MEAN_MOTION_DDOT = 0

CCSDS_OMM_VERS = 2.0
CREATION_DATE  = 
ORIGINATOR     = 

OBJECT_NAME    = CZ-2C R/B
OBJECT_ID      = 2026-021B
CENTER_NAME    = EARTH
REF_FRAME      = TEME
TIME_SYSTEM    = UTC
MEAN_ELEMENT_THEORY = SGP/SGP4

EPOCH          = 2026-02-11T13:50:55.756608
MEAN_MOTION    = 15.23369597
ECCENTRICITY   = .01538875
INCLINATION    = 97.6561
RA_OF_ASC_NODE = 117.5197
ARG_OF_PERICENTER = 101.9473
MEAN_ANOMALY   = 259.9062

EPHEMERIS_TYPE = 0
CLASSIFICATION_TYPE = U
NORAD_CAT_ID   = 67647
ELEMENT_SET_NO = 999
REV_AT_EPOCH   = 172
BSTAR          = .46109698E-3
MEAN_MOTION_DOT = .1525E-3
MEAN_MOTION_DDOT = 0

